OBJECT_NAME,OBJECT_ID,EPOCH,MEAN_MOTION,ECCENTRICITY,INCLINATION,RA_OF_ASC_NODE,ARG_OF_PERICENTER,MEAN_ANOMALY,EPHEMERIS_TYPE,CLASSIFICATION_TYPE,NORAD_CAT_ID,ELEMENT_SET_NO,REV_AT_EPOCH,BSTAR,MEAN_MOTION_DOT,MEAN_MOTION_DDOT
STARLINK-32238,2024-193A,2026-07-12T13:40:09.005088,15.30198115,.00012835,53.1587,231.1446,82.6784,277.4363,0,U,61661,999,9564,.2943281E-4,.513E-5,0
STARLINK-32310,2024-193B,2026-07-12T10:09:20.687040,15.31695433,.00012102,53.1588,230.9460,77.5884,282.5253,0,U,61662,999,9563,.24175849E-4,.385E-5,0
STARLINK-32308,2024-193C,2026-07-12T09:35:29.214816,15.34390530,.00010061,53.1582,229.3796,90.8068,269.3049,0,U,61663,999,9565,.13326471E-4,.74E-6,0
STARLINK-32301,2024-193D,2026-07-12T02:40:40.102464,15.31702265,.00008921,53.1613,232.5568,75.8341,284.2759,0,U,61664,999,9558,-.11797949E-4,-.731E-5,0
STARLINK-32439,2024-193E,2026-07-12T02:59:59.353728,15.30199378,.00016157,53.1575,233.3386,113.6564,246.4607,0,U,61665,999,9557,.18544213E-4,.19E-5,0
STARLINK-32428,2024-193F,2026-07-12T02:54:06.652512,15.31704981,.0001344,53.1580,232.6103,90.0887,270.0268,0,U,61666,999,9558,.6015103E-4,.1502E-4,0
STARLINK-32414,2024-193G,2026-07-12T13:41:39.042528,15.30190845,.00009983,53.1614,231.1531,51.0506,309.0584,0,U,61667,999,9564,.20557448E-4,.25E-5,0
STARLINK-32441,2024-193H,2026-07-12T11:55:26.746176,15.30193044,.0001293,53.1591,231.4022,70.2122,289.9018,0,U,61668,999,9563,.34263431E-4,.655E-5,0
STARLINK-32400,2024-193J,2026-07-12T02:37:53.005728,15.34398627,.00012986,53.1584,230.4123,91.4328,268.6824,0,U,61669,999,9561,.24741333E-3,.7992E-4,0
STARLINK-32449,2024-193K,2026-07-12T09:36:50.480928,15.31700957,.00010798,53.1579,231.5121,88.0029,272.1097,0,U,61670,999,9562,.10680142E-4,-.34E-6,0
STARLINK-32453,2024-193L,2026-07-12T11:17:32.048448,15.31696791,.00018214,53.1593,231.2376,90.9236,269.1974,0,U,61671,999,9563,.3251478E-5,-.265E-5,0
STARLINK-32443,2024-193M,2026-07-11T14:35:52.577088,15.31711356,.00010502,53.1586,235.0972,101.7080,258.4040,0,U,61672,999,9550,.77905036E-4,.2054E-4,0
STARLINK-32417,2024-193N,2026-07-12T02:32:58.952832,15.31697474,.00015115,53.1562,232.5177,75.8206,284.2963,0,U,61673,999,9558,.73618746E-4,.192E-4,0
STARLINK-32326,2024-193P,2026-07-12T10:16:04.042848,15.31695831,.00010288,53.1588,230.9709,102.2689,257.8428,0,U,61674,999,9563,-.36399501E-3,-.11641E-3,0
STARLINK-32294,2024-193Q,2026-07-11T16:42:19.855296,15.31696849,.00011649,53.1576,234.2256,90.0559,270.0576,0,U,61675,999,9552,-.49721351E-4,-.1907E-4,0
STARLINK-32309,2024-193R,2026-07-12T11:30:29.378880,15.34388340,.0001191,53.1587,229.1644,84.5705,275.5434,0,U,61676,999,9566,.19111162E-4,.269E-5,0
STARLINK-32323,2024-193S,2026-07-12T13:49:35.947200,15.34389965,.00012503,53.1578,228.3462,91.4475,268.6670,0,U,61677,999,9568,.37894011E-4,.904E-5,0
STARLINK-32363,2024-193T,2026-07-12T10:32:55.498272,15.34387367,.000278,53.1557,228.9143,107.4378,252.6929,0,U,61678,999,9566,-.15531E-5,-.43E-5,0
STARLINK-32395,2024-193U,2026-07-12T03:01:30.949824,15.30195124,.00010619,53.1569,233.3462,73.4907,286.6210,0,U,61679,999,9557,-.6078173E-5,-.539E-5,0
STARLINK-32412,2024-193V,2026-07-12T12:11:09.142944,15.31707581,.0001065,53.1580,230.7551,83.4663,276.6459,0,U,61680,999,9564,.12665073E-3,.3568E-4,0
STARLINK-32426,2024-193W,2026-07-12T02:56:57.194880,15.30198688,.00011867,53.1591,233.3277,67.3432,292.7694,0,U,61681,999,9557,.8758414E-5,-.1E-5,0
STARLINK-32429,2024-193X,2026-07-12T03:00:49.592736,15.31703003,.0001265,53.1599,232.6307,83.1760,276.9386,0,U,61682,999,9558,.12285913E-4,.16E-6,0
STARLINK-11335 [DTC],2024-195A,2026-07-12T04:39:08.738496,15.69671662,.00012766,53.1598,132.8482,100.0439,260.0723,0,U,61687,999,9858,.34656099E-4,.3605E-4,0
STARLINK-11344 [DTC],2024-195B,2026-07-12T06:03:45.760608,15.69704554,.000162,53.1579,132.5053,89.8147,270.3057,0,U,61688,999,9859,.27372E-5,-.258E-5,0
STARLINK-11312 [DTC],2024-195C,2026-07-12T05:56:40.861824,15.69712022,.0001391,53.1578,132.4739,82.3435,277.7741,0,U,61689,999,9859,.58503E-6,-.518E-5,0
STARLINK-11340 [DTC],2024-195D,2026-07-12T05:49:37.349760,15.69692811,.0001809,53.1546,132.4407,143.7439,216.3701,0,U,61690,999,9859,.23416E-4,.2246E-4,0
STARLINK-11339 [DTC],2024-195E,2026-07-10T06:13:18.540768,15.69702584,.00024856,53.1587,142.1022,76.3296,283.7999,0,U,61691,999,9828,-.3224511E-5,-.981E-5,0
STARLINK-11315 [DTC],2024-195F,2026-07-12T05:42:33.828192,15.69709118,.000351,53.1617,132.4069,70.6269,289.5128,0,U,61692,999,9859,-.55723E-5,-.1268E-4,0
STARLINK-11366 [DTC],2024-195G,2026-07-12T05:28:25.987584,15.69706421,.0001927,53.1603,132.3404,77.1242,282.9991,0,U,61693,999,9859,-.68236E-5,-.1416E-4,0
STARLINK-11348 [DTC],2024-195H,2026-07-12T05:21:22.022784,15.69702737,.0000755,53.1564,132.3112,99.1356,260.9747,0,U,61694,999,9859,.17701E-5,-.374E-5,0
STARLINK-11327 [DTC],2024-195J,2026-07-12T05:14:18.045888,15.69706447,.0001108,53.1579,132.2753,102.9100,257.2042,0,U,61695,999,9859,.23834E-5,-.3E-5,0
STARLINK-11341 [DTC],2024-195K,2026-07-12T14:00:01.999872,15.69803160,.00011515,53.1569,130.4193,91.1760,200.9775,0,U,61696,999,597,-.17110528E-2,-.203667E-2,0
STARLINK-11346 [DTC],2024-195L,2026-07-12T05:00:10.389312,15.69721399,.00015642,53.1583,132.2078,115.5379,244.5801,0,U,61697,999,9859,-.22733745E-4,-.3344E-4,0
STARLINK-11296 [DTC],2024-195N,2026-07-11T05:50:47.093568,15.69703748,.00013028,53.1619,136.8498,99.6186,260.4979,0,U,61699,999,9844,.4296627E-5,-.68E-6,0
STARLINK-32349,2024-195P,2026-07-12T14:13:00.895872,15.30191169,.00012365,53.1611,295.2716,48.0034,312.1072,0,U,61700,999,9630,.23096214E-4,.325E-5,0
STARLINK-32461,2024-195Q,2026-07-12T11:58:25.773888,15.34386271,.00010908,53.1613,293.2777,97.9317,262.1810,0,U,61701,999,9632,.24572234E-4,.454E-5,0
STARLINK-32299,2024-195R,2026-07-12T13:20:06.521856,15.34390142,.00012285,53.1590,292.9120,73.1217,286.9921,0,U,61702,999,9640,.12192517E-3,.3744E-4,0
STARLINK-32387,2024-195T,2026-07-12T14:17:32.830368,15.34394099,.00013716,53.1599,292.4554,61.9343,298.1798,0,U,61704,999,9634,.83127247E-4,.2433E-4,0
STARLINK-32515,2024-195U,2026-07-11T12:02:58.250976,15.30214235,.00010165,53.1605,300.5518,55.1528,304.9569,0,U,61705,999,9613,-.1006347E-3,-.334E-4,0
STARLINK-32533,2024-195V,2026-07-12T12:46:46.390368,15.34386305,.0001469,53.1609,292.7745,84.1590,275.9580,0,U,61706,999,9633,.52393474E-4,.1393E-4,0
STARLINK-32376,2024-196A,2026-07-12T11:06:17.605728,15.34390343,.00013899,53.1583,240.8126,91.1860,268.9302,0,U,61707,999,9628,-.5223682E-5,-.553E-5,0
STARLINK-32402,2024-196B,2026-07-12T09:35:31.432704,15.34393801,.00008661,53.1590,241.1325,89.8620,270.2482,0,U,61708,999,9626,.2494611E-5,-.292E-5,0
STARLINK-32314,2024-196C,2026-07-12T12:19:01.059744,15.34387332,.00013751,53.1601,241.1211,57.1443,302.9692,0,U,61709,999,9627,.10681805E-4,-.16E-6,0
STARLINK-32404,2024-196D,2026-07-12T10:20:58.516512,15.34393339,.00011077,53.1581,241.3252,92.1141,267.9988,0,U,61710,999,9626,.21629067E-4,.355E-5,0
STARLINK-32312,2024-196E,2026-07-12T03:11:15.433728,15.34387822,.00011186,53.1582,242.3034,72.7595,287.3530,0,U,61711,999,9622,.13803265E-4,.9E-6,0
STARLINK-32343,2024-196F,2026-07-12T10:48:15.061248,15.34385037,.00011773,53.1594,241.4408,73.3201,286.7931,0,U,61712,999,9626,.17251003E-4,.206E-5,0
STARLINK-32467,2024-196G,2026-07-12T09:44:38.377536,15.34380306,.0001226,53.1593,241.1737,85.7963,274.3180,0,U,61713,999,9626,-.24897026E-4,-.1217E-4,0
STARLINK-32440,2024-196H,2026-07-12T03:14:17.388672,15.34388519,.00011077,53.1582,242.3175,77.4489,282.6638,0,U,61714,999,9622,.11472244E-4,.11E-6,0
STARLINK-32459,2024-196J,2026-07-12T10:17:56.644512,15.34403648,.00011364,53.1579,241.3091,79.7793,280.3338,0,U,61715,999,9626,.89437105E-4,.2647E-4,0
STARLINK-32465,2024-196K,2026-07-12T10:02:48.120000,15.34395846,.00011966,53.1587,241.2470,85.5140,274.6000,0,U,61716,999,9626,.23502676E-4,.418E-5,0
STARLINK-32457,2024-196L,2026-07-12T13:34:37.790688,15.34388935,.00009393,53.1601,240.7361,94.7122,265.3988,0,U,61717,999,9628,.63465314E-4,.1768E-4,0
STARLINK-32591,2024-196M,2026-07-11T10:37:58.299168,15.34387070,.00015041,53.1607,231.5845,82.4624,277.6549,0,U,61718,999,9631,.10689599E-4,-.15E-6,0
STARLINK-32344,2024-196N,2026-07-12T04:14:52.981440,15.34392885,.00009402,53.1595,242.5784,83.5078,276.6032,0,U,61719,999,9622,.5260114E-5,-.198E-5,0
STARLINK-32322,2024-196P,2026-07-12T09:53:42.568800,15.34400375,.00011051,53.1588,241.2081,91.0811,269.0318,0,U,61720,999,9626,.19116146E-3,.6088E-4,0
STARLINK-32469,2024-196Q,2026-07-10T08:00:03.000384,15.33563852,.00013415,53.1608,251.3701,85.4035,76.2068,0,U,61721,999,573,-.63997145E-3,-.2137E-3,0
STARLINK-32438,2024-196R,2026-07-12T10:11:52.888416,15.34395697,.00013143,53.1588,241.2844,75.9945,284.1204,0,U,61722,999,9626,.12556618E-4,.48E-6,0
STARLINK-32540,2024-196S,2026-07-11T14:48:52.128000,15.34393447,.00016612,53.1559,208.7191,87.7913,272.3280,0,U,61723,999,9664,.10899622E-3,.3307E-4,0
STARLINK-32528,2024-196T,2026-07-12T09:41:35.169792,15.34391170,.0001126,53.1568,241.1530,87.4251,272.6880,0,U,61724,999,9506,.11217988E-4,.3E-7,0
STARLINK-32573,2024-196U,2026-07-12T12:12:57.297600,15.34391595,.00012616,53.1580,241.0948,89.1281,270.9866,0,U,61725,999,9627,.90501646E-4,.2682E-4,0
STARLINK-32478,2024-196V,2026-07-12T10:57:19.635264,15.34398139,.00012143,53.1606,241.4773,85.2547,274.8594,0,U,61726,999,9626,.20739259E-4,.324E-5,0
STARLINK-32511,2024-196W,2026-07-12T09:50:41.705952,15.34374399,.00007619,53.1589,241.1908,78.4572,281.6516,0,U,61727,999,9626,.28791177E-3,.9356E-4,0
STARLINK-32475,2024-196X,2026-07-12T10:08:51.765504,15.34392953,.00013239,53.1594,241.2682,101.6399,258.4753,0,U,61728,999,9626,.11586688E-3,.3539E-4,0
STARLINK-32442,2024-196Y,2026-07-12T09:59:46.359456,15.34391829,.00011397,53.1574,241.2286,87.7580,272.3553,0,U,61729,999,9626,.11460004E-3,.3497E-4,0
STARLINK-32362,2024-202A,2026-07-12T03:50:54.159648,15.27578054,.00010858,42.9956,243.8100,258.8758,101.1971,0,U,61845,999,9508,-.17721978E-4,-.749E-5,0
